[{"OBJECT_NAME":"SHENZHOU-22","OBJECT_ID":"2025-272A","EPOCH":"2026-03-14T00:03:53.258400","MEAN_MOTION":15.6090469,"ECCENTRICITY":0.0006689,"INCLINATION":41.4663,"RA_OF_ASC_NODE":181.9138,"ARG_OF_PERICENTER":299.3968,"MEAN_ANOMALY":60.6202,"EPHEMERIS_TYPE":0,"CLASSIFICATION_TYPE":"U","NORAD_CAT_ID":66645,"ELEMENT_SET_NO":999,"REV_AT_EPOCH":26752,"BSTAR":0.00034787289,"MEAN_MOTION_DOT":0.00029757,"MEAN_MOTION_DDOT":0},{"OBJECT_NAME":"SOYUZ-MS 28","OBJECT_ID":"2025-275A","EPOCH":"2026-03-14T10:01:48.497952","MEAN_MOTION":15.48274195,"ECCENTRICITY":0.00063896,"INCLINATION":51.6328,"RA_OF_ASC_NODE":48.9797,"ARG_OF_PERICENTER":189.638,"MEAN_ANOMALY":170.4486,"EPHEMERIS_TYPE":0,"CLASSIFICATION_TYPE":"U","NORAD_CAT_ID":66664,"ELEMENT_SET_NO":999,"REV_AT_EPOCH":55452,"BSTAR":0.00019399232,"MEAN_MOTION_DOT":9.99e-5,"MEAN_MOTION_DDOT":0},{"OBJECT_NAME":"DUPLEX","OBJECT_ID":"1998-067XS","EPOCH":"2026-03-14T11:11:02.743872","MEAN_MOTION":15.56556942,"ECCENTRICITY":0.00027338,"INCLINATION":51.6289,"RA_OF_ASC_NODE":45.5537,"ARG_OF_PERICENTER":133.6301,"MEAN_ANOMALY":226.4918,"EPHEMERIS_TYPE":0,"CLASSIFICATION_TYPE":"U","NORAD_CAT_ID":66906,"ELEMENT_SET_NO":999,"REV_AT_EPOCH":1587,"BSTAR":0.00049038,"MEAN_MOTION_DOT":0.00035165,"MEAN_MOTION_DDOT":0},{"OBJECT_NAME":"ISS OBJECT XT","OBJECT_ID":"1998-067XT","EPOCH":"2026-03-14T03:58:37.938432","MEAN_MOTION":15.70807733,"ECCENTRICITY":0.0004685,"INCLINATION":51.6252,"RA_OF_ASC_NODE":42.7793,"ARG_OF_PERICENTER":110.2484,"MEAN_ANOMALY":249.9018,"EPHEMERIS_TYPE":0,"CLASSIFICATION_TYPE":"U","NORAD_CAT_ID":66907,"ELEMENT_SET_NO":999,"REV_AT_EPOCH":1588,"BSTAR":0.0015370402,"MEAN_MOTION_DOT":0.00199468,"MEAN_MOTION_DDOT":0},{"OBJECT_NAME":"ISS OBJECT XU","OBJECT_ID":"1998-067XU","EPOCH":"2026-03-14T03:55:30.148032","MEAN_MOTION":15.70944877,"ECCENTRICITY":0.00049471,"INCLINATION":51.6245,"RA_OF_ASC_NODE":42.7614,"ARG_OF_PERICENTER":112.0729,"MEAN_ANOMALY":248.0794,"EPHEMERIS_TYPE":0,"CLASSIFICATION_TYPE":"U","NORAD_CAT_ID":66908,"ELEMENT_SET_NO":999,"REV_AT_EPOCH":1588,"BSTAR":0.0015525717,"MEAN_MOTION_DOT":0.00202744,"MEAN_MOTION_DDOT":0},{"OBJECT_NAME":"SILVERSAT","OBJECT_ID":"1998-067XV","EPOCH":"2026-03-14T03:44:39.748704","MEAN_MOTION":15.74242303,"ECCENTRICITY":0.00054056,"INCLINATION":51.6244,"RA_OF_ASC_NODE":41.959,"ARG_OF_PERICENTER":108.4786,"MEAN_ANOMALY":251.6801,"EPHEMERIS_TYPE":0,"CLASSIFICATION_TYPE":"U","NORAD_CAT_ID":66909,"ELEMENT_SET_NO":999,"REV_AT_EPOCH":1589,"BSTAR":0.0018276272,"MEAN_MOTION_DOT":0.00277261,"MEAN_MOTION_DDOT":0},{"OBJECT_NAME":"ISS OBJECT XW","OBJECT_ID":"1998-067XW","EPOCH":"2026-03-14T03:54:14.020128","MEAN_MOTION":15.70008853,"ECCENTRICITY":0.00052849,"INCLINATION":51.6241,"RA_OF_ASC_NODE":42.752,"ARG_OF_PERICENTER":112.8313,"MEAN_ANOMALY":247.3243,"EPHEMERIS_TYPE":0,"CLASSIFICATION_TYPE":"U","NORAD_CAT_ID":66910,"ELEMENT_SET_NO":999,"REV_AT_EPOCH":1588,"BSTAR":0.001435364,"MEAN_MOTION_DOT":0.00179714,"MEAN_MOTION_DDOT":0},{"OBJECT_NAME":"ISS OBJECT XX","OBJECT_ID":"1998-067XX","EPOCH":"2026-03-14T11:02:23.063424","MEAN_MOTION":15.7817303,"ECCENTRICITY":0.00068439,"INCLINATION":51.6205,"RA_OF_ASC_NODE":39.4663,"ARG_OF_PERICENTER":114.7777,"MEAN_ANOMALY":245.3936,"EPHEMERIS_TYPE":0,"CLASSIFICATION_TYPE":"U","NORAD_CAT_ID":66911,"ELEMENT_SET_NO":999,"REV_AT_EPOCH":1594,"BSTAR":0.0018926158,"MEAN_MOTION_DOT":0.00344249,"MEAN_MOTION_DDOT":0},{"OBJECT_NAME":"ISS OBJECT XY","OBJECT_ID":"1998-067XY","EPOCH":"2026-03-14T04:21:40.155264","MEAN_MOTION":15.64616035,"ECCENTRICITY":0.00034324,"INCLINATION":51.6271,"RA_OF_ASC_NODE":44.3989,"ARG_OF_PERICENTER":116.749,"MEAN_ANOMALY":243.3857,"EPHEMERIS_TYPE":0,"CLASSIFICATION_TYPE":"U","NORAD_CAT_ID":66912,"ELEMENT_SET_NO":999,"REV_AT_EPOCH":1585,"BSTAR":0.0011718451,"MEAN_MOTION_DOT":0.00116764,"MEAN_MOTION_DDOT":0},{"OBJECT_NAME":"KNACKSAT-2","OBJECT_ID":"1998-067XZ","EPOCH":"2026-03-14T05:38:11.885856","MEAN_MOTION":15.5222592,"ECCENTRICITY":0.00093942,"INCLINATION":51.6313,"RA_OF_ASC_NODE":49.2585,"ARG_OF_PERICENTER":201.9714,"MEAN_ANOMALY":158.0875,"EPHEMERIS_TYPE":0,"CLASSIFICATION_TYPE":"U","NORAD_CAT_ID":67683,"ELEMENT_SET_NO":999,"REV_AT_EPOCH":549,"BSTAR":0.00075325904,"MEAN_MOTION_DOT":0.0004642,"MEAN_MOTION_DDOT":0},{"OBJECT_NAME":"GXIBA-1","OBJECT_ID":"1998-067YA","EPOCH":"2026-03-14T04:47:37.477248","MEAN_MOTION":15.5511411,"ECCENTRICITY":0.00116291,"INCLINATION":51.6308,"RA_OF_ASC_NODE":49.0237,"ARG_OF_PERICENTER":191.1014,"MEAN_ANOMALY":168.9722,"EPHEMERIS_TYPE":0,"CLASSIFICATION_TYPE":"U","NORAD_CAT_ID":67684,"ELEMENT_SET_NO":999,"REV_AT_EPOCH":549,"BSTAR":0.0014476585,"MEAN_MOTION_DOT":0.00100394,"MEAN_MOTION_DDOT":0},{"OBJECT_NAME":"CORAL","OBJECT_ID":"1998-067YB","EPOCH":"2026-03-14T05:30:11.107872","MEAN_MOTION":15.52633446,"ECCENTRICITY":0.00113996,"INCLINATION":51.6308,"RA_OF_ASC_NODE":49.2217,"ARG_OF_PERICENTER":198.3044,"MEAN_ANOMALY":161.7538,"EPHEMERIS_TYPE":0,"CLASSIFICATION_TYPE":"U","NORAD_CAT_ID":67685,"ELEMENT_SET_NO":999,"REV_AT_EPOCH":549,"BSTAR":0.00083396043,"MEAN_MOTION_DOT":0.00052293,"MEAN_MOTION_DDOT":0},{"OBJECT_NAME":"ISS OBJECT YC","OBJECT_ID":"1998-067YC","EPOCH":"2026-03-14T02:14:28.814784","MEAN_MOTION":15.53248066,"ECCENTRICITY":0.00082413,"INCLINATION":51.6311,"RA_OF_ASC_NODE":49.8165,"ARG_OF_PERICENTER":166.3513,"MEAN_ANOMALY":193.7701,"EPHEMERIS_TYPE":0,"CLASSIFICATION_TYPE":"U","NORAD_CAT_ID":67686,"ELEMENT_SET_NO":999,"REV_AT_EPOCH":547,"BSTAR":0.00095345435,"MEAN_MOTION_DOT":0.00061199,"MEAN_MOTION_DDOT":0},{"OBJECT_NAME":"LEOPARD","OBJECT_ID":"1998-067YD","EPOCH":"2026-03-14T10:12:07.709472","MEAN_MOTION":15.52443098,"ECCENTRICITY":0.00081057,"INCLINATION":51.6312,"RA_OF_ASC_NODE":48.2815,"ARG_OF_PERICENTER":171.2752,"MEAN_ANOMALY":188.838,"EPHEMERIS_TYPE":0,"CLASSIFICATION_TYPE":"U","NORAD_CAT_ID":67687,"ELEMENT_SET_NO":999,"REV_AT_EPOCH":544,"BSTAR":0.00078753578,"MEAN_MOTION_DOT":0.00048932,"MEAN_MOTION_DDOT":0},{"OBJECT_NAME":"ISS OBJECT YE","OBJECT_ID":"1998-067YE","EPOCH":"2026-03-14T05:24:30.623616","MEAN_MOTION":15.52973909,"ECCENTRICITY":0.00081089,"INCLINATION":51.6309,"RA_OF_ASC_NODE":49.1976,"ARG_OF_PERICENTER":167.6163,"MEAN_ANOMALY":192.5028,"EPHEMERIS_TYPE":0,"CLASSIFICATION_TYPE":"U","NORAD_CAT_ID":67688,"ELEMENT_SET_NO":999,"REV_AT_EPOCH":541,"BSTAR":0.00093824643,"MEAN_MOTION_DOT":0.00059603,"MEAN_MOTION_DDOT":0},{"OBJECT_NAME":"CREW DRAGON 12","OBJECT_ID":"2026-031A","EPOCH":"2026-03-14T10:01:48.497952","MEAN_MOTION":15.48274195,"ECCENTRICITY":0.00063896,"INCLINATION":51.6328,"RA_OF_ASC_NODE":48.9797,"ARG_OF_PERICENTER":189.638,"MEAN_ANOMALY":170.4486,"EPHEMERIS_TYPE":0,"CLASSIFICATION_TYPE":"U","NORAD_CAT_ID":67796,"ELEMENT_SET_NO":999,"REV_AT_EPOCH":55696,"BSTAR":0.00019399232,"MEAN_MOTION_DOT":9.99e-5,"MEAN_MOTION_DDOT":0}]
