SHENZHOU-22             
1 66645U 25272A   26073.00269975  .00029757  00000+0  34787-3 0  9992
2 66645  41.4663 181.9138 0006689 299.3968  60.6202 15.60904690267527
SOYUZ-MS 28             
1 66664U 25275A   26073.41792243  .00009990  00000+0  19399-3 0  9999
2 66664  51.6328  48.9797 0006389 189.6380 170.4486 15.48274195554527
DUPLEX                  
1 66906U 98067XS  26073.46600398  .00035165  00000+0  49038-3 0  9997
2 66906  51.6289  45.5537 0002733 133.6301 226.4918 15.56556942 15872
ISS OBJECT XT           
1 66907U 98067XT  26073.16571688  .00199468  00000+0  15370-2 0  9992
2 66907  51.6252  42.7793 0004685 110.2484 249.9018 15.70807733 15882
ISS OBJECT XU           
1 66908U 98067XU  26073.16354338  .00202744  00000+0  15526-2 0  9999
2 66908  51.6245  42.7614 0004947 112.0729 248.0794 15.70944877 15882
SILVERSAT               
1 66909U 98067XV  26073.15601561  .00277261  00000+0  18276-2 0  9993
2 66909  51.6244  41.9590 0005405 108.4786 251.6801 15.74242303 15897
ISS OBJECT XW           
1 66910U 98067XW  26073.16266227  .00179714  00000+0  14354-2 0  9999
2 66910  51.6241  42.7520 0005284 112.8313 247.3243 15.70008853 15885
ISS OBJECT XX           
1 66911U 98067XX  26073.45998916  .00344249  00000+0  18926-2 0  9995
2 66911  51.6205  39.4663 0006843 114.7777 245.3936 15.78173030 15946
ISS OBJECT XY           
1 66912U 98067XY  26073.18171476  .00116764  00000+0  11718-2 0  9991
2 66912  51.6271  44.3989 0003432 116.7490 243.3857 15.64616035 15853
KNACKSAT-2              
1 67683U 98067XZ  26073.23485979  .00046420  00000+0  75326-3 0  9996
2 67683  51.6313  49.2585 0009394 201.9714 158.0875 15.52225920  5498
GXIBA-1                 
1 67684U 98067YA  26073.19973932  .00100394  00000+0  14477-2 0  9993
2 67684  51.6308  49.0237 0011629 191.1014 168.9722 15.55114110  5494
CORAL                   
1 67685U 98067YB  26073.22929523  .00052293  00000+0  83396-3 0  9996
2 67685  51.6308  49.2217 0011399 198.3044 161.7538 15.52633446  5492
ISS OBJECT YC           
1 67686U 98067YC  26073.09338906  .00061199  00000+0  95345-3 0  9993
2 67686  51.6311  49.8165 0008241 166.3513 193.7701 15.53248066  5479
LEOPARD                 
1 67687U 98067YD  26073.42508923  .00048932  00000+0  78754-3 0  9994
2 67687  51.6312  48.2815 0008105 171.2752 188.8380 15.52443098  5441
ISS OBJECT YE           
1 67688U 98067YE  26073.22535444  .00059603  00000+0  93825-3 0  9994
2 67688  51.6309  49.1976 0008108 167.6163 192.5028 15.52973909  5411
CREW DRAGON 12          
1 67796U 26031A   26073.41792243  .00009990  00000+0  19399-3 0  9997
2 67796  51.6328  48.9797 0006389 189.6380 170.4486 15.48274195556964
